STARLINK-1814_new
1 16712C 20073AU  21326.14481286  .00004716  00000-0  31592-3 0  3265
2 16712  53.0554  83.1047 0001237  76.9438 218.7466 15.06399632    16
STARLINK-1814_old
1 26712C 20073AU  21325.14930205  .00004434  00000-0  29715-3 0  3254
2 26712  53.0553  87.5733 0001302  77.0650 216.9596 15.06388877    19
